{"type": "FeatureCollection", "features": [ {"type": "Feature", "properties": {"norad_id": 39155, "name": "COSMOS 2485 (747)", "group": "glo-ops", "lat": 41.79061425779748, "lon": 104.42606817969144, "alt_km": 19187.64057981727, "timestamp": "2025-12-03T06:58:43.498403+00:00", "meta": {"OBJECT_NAME": "COSMOS 2485 (747)", "OBJECT_ID": "2013-019A", "EPOCH": "2025-12-02T06:58:21.505152", "MEAN_MOTION": 2.13102877, "ECCENTRICITY": 0.0024568, "INCLINATION": 65.3079, "RA_OF_ASC_NODE": 80.2187, "ARG_OF_PERICENTER": 229.0905, "MEAN_ANOMALY": 130.6936, "EPHEMERIS_TYPE": 0, "CLASSIFICATION_TYPE": "U", "NORAD_CAT_ID": 39155, "ELEMENT_SET_NO": 999, "REV_AT_EPOCH": 9808, "BSTAR": 0, "MEAN_MOTION_DOT": -1.8e-07, "MEAN_MOTION_DDOT": 0}, "tle": {"line1": "1 39155U 13019A   25336.29052668 -.00000018  00000+0  00000+0 0  9992", "line2": "2 39155  65.3079  80.2187 0024568 229.0905 130.6936  2.13102877 98087"}}, "geometry": {"type": "Point", "coordinates": [104.42606817969144, 41.79061425779748]}}, {"type": "Feature", "properties": {"norad_id": 39620, "name": "COSMOS 2492 (754)", "group": "glo-ops", "lat": 63.24129290990525, "lon": 25.840240952099688, "alt_km": 19145.362653133954, "timestamp": "2025-12-03T06:58:43.498418+00:00", "meta": {"OBJECT_NAME": "COSMOS 2492 (754)", "OBJECT_ID": "2014-012A", "EPOCH": "2025-12-02T05:58:46.587648", "MEAN_MOTION": 2.13103074, "ECCENTRICITY": 0.0014167, "INCLINATION": 65.4137, "RA_OF_ASC_NODE": 320.6266, "ARG_OF_PERICENTER": 311.0108, "MEAN_ANOMALY": 48.8746, "EPHEMERIS_TYPE": 0, "CLASSIFICATION_TYPE": "U", "NORAD_CAT_ID": 39620, "ELEMENT_SET_NO": 999, "REV_AT_EPOCH": 9104, "BSTAR": 0, "MEAN_MOTION_DOT": -3.3e-07, "MEAN_MOTION_DDOT": 0}, "tle": {"line1": "1 39620U 14012A   25336.24915032 -.00000033  00000+0  00000+0 0  9998", "line2": "2 39620  65.4137 320.6266 0014167 311.0108  48.8746  2.13103074 91048"}}, "geometry": {"type": "Point", "coordinates": [25.840240952099688, 63.24129290990525]}}, {"type": "Feature", "properties": {"norad_id": 40001, "name": "COSMOS 2500 (755)", "group": "glo-ops", "lat": -46.57221243226467, "lon": -68.68065031851613, "alt_km": 19134.3001336477, "timestamp": "2025-12-03T06:58:43.498432+00:00", "meta": {"OBJECT_NAME": "COSMOS 2500 (755)", "OBJECT_ID": "2014-032A", "EPOCH": "2025-12-01T22:51:13.641408", "MEAN_MOTION": 2.13105853, "ECCENTRICITY": 0.00082978, "INCLINATION": 65.3495, "RA_OF_ASC_NODE": 320.3998, "ARG_OF_PERICENTER": 219.081, "MEAN_ANOMALY": 140.8682, "EPHEMERIS_TYPE": 0, "CLASSIFICATION_TYPE": "U", "NORAD_CAT_ID": 40001, "ELEMENT_SET_NO": 999, "REV_AT_EPOCH": 8925, "BSTAR": 0, "MEAN_MOTION_DOT": -3.1e-07, "MEAN_MOTION_DDOT": 0}, "tle": {"line1": "1 40001U 14032A   25335.95224122 -.00000031  00000+0  00000+0 0  9993", "line2": "2 40001  65.3495 320.3998 0008297 219.0810 140.8682  2.13105853 89251"}}, "geometry": {"type": "Point", "coordinates": [-68.68065031851613, -46.57221243226467]}}, {"type": "Feature", "properties": {"norad_id": 40315, "name": "COSMOS 2501 (702K)", "group": "glo-ops", "lat": 58.72421006076189, "lon": -37.63016456469668, "alt_km": 19130.047834399767, "timestamp": "2025-12-03T06:58:43.498449+00:00", "meta": {"OBJECT_NAME": "COSMOS 2501 (702K)", "OBJECT_ID": "2014-075A", "EPOCH": "2025-11-30T19:17:52.497312", "MEAN_MOTION": 2.13101305, "ECCENTRICITY": 0.00201676, "INCLINATION": 63.6137, "RA_OF_ASC_NODE": 197.2386, "ARG_OF_PERICENTER": 204.7979, "MEAN_ANOMALY": 155.1955, "EPHEMERIS_TYPE": 0, "CLASSIFICATION_TYPE": "U", "NORAD_CAT_ID": 40315, "ELEMENT_SET_NO": 999, "REV_AT_EPOCH": 8562, "BSTAR": 0, "MEAN_MOTION_DOT": 1e-06, "MEAN_MOTION_DDOT": 0}, "tle": {"line1": "1 40315U 14075A   25334.80407983  .00000100  00000+0  00000+0 0  9995", "line2": "2 40315  63.6137 197.2386 0020167 204.7979 155.1955  2.13101305 85629"}}, "geometry": {"type": "Point", "coordinates": [-37.63016456469668, 58.72421006076189]}}, {"type": "Feature", "properties": {"norad_id": 41330, "name": "COSMOS 2514 (751)", "group": "glo-ops", "lat": 51.900069125609384, "lon": 103.46211019883322, "alt_km": 19129.54030413636, "timestamp": "2025-12-03T06:58:43.498461+00:00", "meta": {"OBJECT_NAME": "COSMOS 2514 (751)", "OBJECT_ID": "2016-008A", "EPOCH": "2025-12-02T04:41:58.161984", "MEAN_MOTION": 2.13102491, "ECCENTRICITY": 0.00124931, "INCLINATION": 65.1398, "RA_OF_ASC_NODE": 319.7653, "ARG_OF_PERICENTER": 219.8518, "MEAN_ANOMALY": 140.0636, "EPHEMERIS_TYPE": 0, "CLASSIFICATION_TYPE": "U", "NORAD_CAT_ID": 41330, "ELEMENT_SET_NO": 999, "REV_AT_EPOCH": 7642, "BSTAR": 0, "MEAN_MOTION_DOT": -3.3e-07, "MEAN_MOTION_DDOT": 0}, "tle": {"line1": "1 41330U 16008A   25336.19581206 -.00000033  00000+0  00000+0 0  9992", "line2": "2 41330  65.1398 319.7653 0012493 219.8518 140.0636  2.13102491 76424"}}, "geometry": {"type": "Point", "coordinates": [103.46211019883322, 51.900069125609384]}}, {"type": "Feature", "properties": {"norad_id": 42939, "name": "COSMOS 2522 (752)", "group": "glo-ops", "lat": -53.91814550383407, "lon": 60.40707375867474, "alt_km": 19119.983358917667, "timestamp": "2025-12-03T06:58:43.498473+00:00", "meta": {"OBJECT_NAME": "COSMOS 2522 (752)", "OBJECT_ID": "2017-055A", "EPOCH": "2025-12-02T00:49:19.068672", "MEAN_MOTION": 2.13101864, "ECCENTRICITY": 0.0006552, "INCLINATION": 64.0757, "RA_OF_ASC_NODE": 198.5937, "ARG_OF_PERICENTER": 226.1322, "MEAN_ANOMALY": 133.9083, "EPHEMERIS_TYPE": 0, "CLASSIFICATION_TYPE": "U", "NORAD_CAT_ID": 42939, "ELEMENT_SET_NO": 999, "REV_AT_EPOCH": 6377, "BSTAR": 0, "MEAN_MOTION_DOT": 1.06e-06, "MEAN_MOTION_DDOT": 0}, "tle": {"line1": "1 42939U 17055A   25336.03424848  .00000106  00000+0  00000+0 0  9992", "line2": "2 42939  64.0757 198.5937 0006552 226.1322 133.9083  2.13101864 63772"}}, "geometry": {"type": "Point", "coordinates": [60.40707375867474, -53.91814550383407]}}, {"type": "Feature", "properties": {"norad_id": 43508, "name": "COSMOS 2527 (756)", "group": "glo-ops", "lat": -65.15717463039667, "lon": 0.3924922370893898, "alt_km": 19122.47478574957, "timestamp": "2025-12-03T06:58:43.498485+00:00", "meta": {"OBJECT_NAME": "COSMOS 2527 (756)", "OBJECT_ID": "2018-053A", "EPOCH": "2025-12-02T11:08:26.615616", "MEAN_MOTION": 2.13102038, "ECCENTRICITY": 0.00086347, "INCLINATION": 65.467, "RA_OF_ASC_NODE": 80.4752, "ARG_OF_PERICENTER": 223.9095, "MEAN_ANOMALY": 136.0181, "EPHEMERIS_TYPE": 0, "CLASSIFICATION_TYPE": "U", "NORAD_CAT_ID": 43508, "ELEMENT_SET_NO": 999, "REV_AT_EPOCH": 5808, "BSTAR": 0, "MEAN_MOTION_DOT": -1.9e-07, "MEAN_MOTION_DDOT": 0}, "tle": {"line1": "1 43508U 18053A   25336.46419694 -.00000019  00000+0  00000+0 0  9998", "line2": "2 43508  65.4670  80.4752 0008634 223.9095 136.0181  2.13102038 58088"}}, "geometry": {"type": "Point", "coordinates": [0.3924922370893898, -65.15717463039667]}}, {"type": "Feature", "properties": {"norad_id": 43687, "name": "COSMOS 2529 (757)", "group": "glo-ops", "lat": -17.25494252258697, "lon": 27.81226157833095, "alt_km": 19121.930579512496, "timestamp": "2025-12-03T06:58:43.498496+00:00", "meta": {"OBJECT_NAME": "COSMOS 2529 (757)", "OBJECT_ID": "2018-086A", "EPOCH": "2025-12-02T02:13:08.231232", "MEAN_MOTION": 2.13101888, "ECCENTRICITY": 0.00073192, "INCLINATION": 64.2916, "RA_OF_ASC_NODE": 199.2482, "ARG_OF_PERICENTER": 254.4922, "MEAN_ANOMALY": 105.5219, "EPHEMERIS_TYPE": 0, "CLASSIFICATION_TYPE": "U", "NORAD_CAT_ID": 43687, "ELEMENT_SET_NO": 999, "REV_AT_EPOCH": 5508, "BSTAR": 0, "MEAN_MOTION_DOT": 1.05e-06, "MEAN_MOTION_DDOT": 0}, "tle": {"line1": "1 43687U 18086A   25336.09245638  .00000105  00000+0  00000+0 0  9991", "line2": "2 43687  64.2916 199.2482 0007319 254.4922 105.5219  2.13101888 55084"}}, "geometry": {"type": "Point", "coordinates": [27.81226157833095, -17.25494252258697]}}, {"type": "Feature", "properties": {"norad_id": 44299, "name": "COSMOS 2534 (758)", "group": "glo-ops", "lat": -23.515993442390027, "lon": -172.8421227080869, "alt_km": 19118.44828589273, "timestamp": "2025-12-03T06:58:43.498508+00:00", "meta": {"OBJECT_NAME": "COSMOS 2534 (758)", "OBJECT_ID": "2019-030A", "EPOCH": "2025-12-01T03:07:57.438624", "MEAN_MOTION": 2.1310195, "ECCENTRICITY": 0.00091167, "INCLINATION": 64.3652, "RA_OF_ASC_NODE": 199.2842, "ARG_OF_PERICENTER": 283.4428, "MEAN_ANOMALY": 193.0266, "EPHEMERIS_TYPE": 0, "CLASSIFICATION_TYPE": "U", "NORAD_CAT_ID": 44299, "ELEMENT_SET_NO": 999, "REV_AT_EPOCH": 5070, "BSTAR": 0, "MEAN_MOTION_DOT": 9.9e-07, "MEAN_MOTION_DDOT": 0}, "tle": {"line1": "1 44299U 19030A   25335.13052591  .00000099  00000+0  00000+0 0  9991", "line2": "2 44299  64.3652 199.2842 0009116 283.4428 193.0266  2.13101950 50700"}}, "geometry": {"type": "Point", "coordinates": [-172.8421227080869, -23.515993442390027]}}, {"type": "Feature", "properties": {"norad_id": 44850, "name": "COSMOS 2544 (759)", "group": "glo-ops", "lat": -38.62596657832663, "lon": 58.89198640467626, "alt_km": 19121.696588407303, "timestamp": "2025-12-03T06:58:43.498519+00:00", "meta": {"OBJECT_NAME": "COSMOS 2544 (759)", "OBJECT_ID": "2019-088A", "EPOCH": "2025-12-02T09:48:35.344224", "MEAN_MOTION": 2.13101818, "ECCENTRICITY": 0.00136693, "INCLINATION": 65.4544, "RA_OF_ASC_NODE": 80.304, "ARG_OF_PERICENTER": 248.8168, "MEAN_ANOMALY": 111.0338, "EPHEMERIS_TYPE": 0, "CLASSIFICATION_TYPE": "U", "NORAD_CAT_ID": 44850, "ELEMENT_SET_NO": 999, "REV_AT_EPOCH": 4652, "BSTAR": 0, "MEAN_MOTION_DOT": -1.9e-07, "MEAN_MOTION_DDOT": 0}, "tle": {"line1": "1 44850U 19088A   25336.40874241 -.00000019  00000+0  00000+0 0  9995", "line2": "2 44850  65.4544  80.3040 0013669 248.8168 111.0338  2.13101818 46527"}}, "geometry": {"type": "Point", "coordinates": [58.89198640467626, -38.62596657832663]}}]}